NORAD_CAT_ID,OBJECT_NAME,OBJECT_TYPE,EPOCH,MEAN_MOTION,ECCENTRICITY,INCLINATION,RA_OF_ASC_NODE,ARG_OF_PERICENTER,MEAN_ANOMALY,BSTAR,MEAN_MOTION_DOT,MEAN_MOTION_DDOT,TLE_LINE0,TLE_LINE1,TLE_LINE2,SEMIMAJOR_AXIS,PERIOD,APOGEE,PERIGEE,DECAYED
56495.0,STARLINK-5529,PAYLOAD,2024-06-28 13:15:50,14.98334569,0.000338,69.9991,225.4422,267.1497,92.9275,4.6518e-05,4.62e-06,0.0,0 STARLINK-5529,1 56495U 23064AZ  24180.55266304  .00000462  00000-0  46518-4 0  9990,2 56495  69.9991 225.4422 0003380 267.1497  92.9275 14.98334569 63493,6950.179,96.107,574.393,569.695,0.0
56495.0,STARLINK-5529,PAYLOAD,2024-06-29 05:17:11,14.98330518,0.0003349,69.9992,223.759,267.0186,93.059,5.9148e-06,-2.2e-07,0.0,0 STARLINK-5529,1 56495U 23064AZ  24181.22026623 -.00000022  00000-0  59148-5 0  9990,2 56495  69.9992 223.7590 0003349 267.0186  93.0590 14.98330518 63953,6950.191,96.107,574.384,569.729,0.0
56495.0,STARLINK-5529,PAYLOAD,2024-06-29 13:17:51,14.98332292,0.0003325,69.9991,222.9175,266.9776,93.1003,2.475e-05,2.02e-06,0.0,0 STARLINK-5529,1 56495U 23064AZ  24181.55406430  .00000202  00000-0  24750-4 0  9993,2 56495  69.9991 222.9175 0003325 266.9776  93.1003 14.98332292 63646,6950.186,96.107,574.362,569.74,0.0
56495.0,STARLINK-5529,PAYLOAD,2024-06-29 19:42:23,14.98329084,0.0003308,69.9992,222.2441,267.3008,92.7772,-7.0496e-06,-1.77e-06,0.0,0 STARLINK-5529,1 56495U 23064AZ  24181.82110705 -.00000177  00000-0 -70496-5 0  9992,2 56495  69.9992 222.2441 0003308 267.3008  92.7772 14.98329084 63687,6950.196,96.107,574.36,569.762,0.0
56495.0,STARLINK-5529,PAYLOAD,2024-06-30 05:19:12,14.98328442,0.0003308,69.999,221.234,267.7304,92.3476,-1.4462e-05,-2.66e-06,0.0,0 STARLINK-5529,1 56495U 23064AZ  24182.22166770 -.00000266  00000-0 -14462-4 0  9999,2 56495  69.9990 221.2340 0003308 267.7304  92.3476 14.98328442 64107,6950.198,96.107,574.362,569.764,0.0
56495.0,STARLINK-5529,PAYLOAD,2024-06-30 11:43:44,14.9832812,0.0003311,69.999,220.5606,268.3664,91.7115,-1.7196e-05,-2.98e-06,0.0,0 STARLINK-5529,1 56495U 23064AZ  24182.48870823 -.00000298  00000-0 -17196-4 0  9990,2 56495  69.9990 220.5606 0003311 268.3664  91.7115 14.98328120 63783,6950.199,96.107,574.365,569.762,0.0
56495.0,STARLINK-5529,PAYLOAD,2024-07-01 05:21:12,14.98330023,0.0003334,69.9988,218.7088,267.3645,92.7132,2.1444e-05,1.63e-06,0.0,0 STARLINK-5529,1 56495U 23064AZ  24183.22306642  .00000163  00000-0  21444-4 0  9996,2 56495  69.9988 218.7088 0003334 267.3645  92.7132 14.98330023 64254,6950.193,96.107,574.375,569.741,0.0
56495.0,STARLINK-5529,PAYLOAD,2024-07-01 13:21:53,14.98330715,0.0003352,69.9988,217.8671,267.5673,92.5102,2.6925e-05,2.28e-06,0.0,0 STARLINK-5529,1 56495U 23064AZ  24183.55686583  .00000228  00000-0  26925-4 0  9998,2 56495  69.9988 217.8671 0003352 267.5673  92.5102 14.98330715 63943,6950.191,96.107,574.385,569.726,0.0
56495.0,STARLINK-5529,PAYLOAD,2024-07-01 19:46:25,14.98330683,0.0003479,69.9985,217.194,269.8733,90.2027,3.3991e-05,3.13e-06,0.0,0 STARLINK-5529,1 56495U 23064AZ  24183.82390538  .00000313  00000-0  33991-4 0  9996,2 56495  69.9985 217.1940 0003479 269.8733  90.2027 14.98330683 63983,6950.191,96.107,574.474,569.638,0.0
56495.0,STARLINK-5529,PAYLOAD,2024-07-02 05:23:14,14.98325521,0.0003512,69.9983,216.1837,269.229,90.8467,4.9244e-05,4.94e-06,0.0,0 STARLINK-5529,1 56495U 23064AZ  24184.22446866  .00000494  00000-0  49244-4 0  9995,2 56495  69.9983 216.1837 0003512 269.2290  90.8467 14.98325521 64402,6950.207,96.107,574.513,569.631,0.0
56495.0,STARLINK-5529,PAYLOAD,2024-07-02 11:47:46,14.98329132,0.0003526,69.9983,215.5103,269.295,90.7805,4.7859e-05,4.78e-06,0.0,0 STARLINK-5529,1 56495U 23064AZ  24184.49150670  .00000478  00000-0  47859-4 0  9991,2 56495  69.9983 215.5103 0003526 269.2950  90.7805 14.98329132 64080,6950.196,96.107,574.511,569.61,0.0
56495.0,STARLINK-5529,PAYLOAD,2024-07-03 11:49:46,14.98333154,0.0003544,69.9983,212.9851,268.7338,91.3415,4.3814e-05,4.3e-06,0.0,0 STARLINK-5529,1 56495U 23064AZ  24185.49290341  .00000430  00000-0  43814-4 0  9997,2 56495  69.9983 212.9851 0003544 268.7338  91.3415 14.98333154 64594,6950.183,96.107,574.511,569.585,0.0
56495.0,STARLINK-5529,PAYLOAD,2024-07-04 11:51:47,14.98331623,0.0003522,69.9986,210.4602,268.5698,91.5057,3.1261e-05,2.8e-06,0.0,0 STARLINK-5529,1 56495U 23064AZ  24186.49430327  .00000280  00000-0  31261-4 0  9994,2 56495  69.9986 210.4602 0003522 268.5698  91.5057 14.98331623 64747,6950.188,96.107,574.501,569.605,0.0
56495.0,STARLINK-5529,PAYLOAD,2024-07-05 11:53:48,14.9833246,0.0003494,69.9986,207.9354,268.3363,91.7396,1.321e-05,6.5e-07,0.0,0 STARLINK-5529,1 56495U 23064AZ  24187.49570205  .00000065  00000-0  13210-4 0  9990,2 56495  69.9986 207.9354 0003494 268.3363  91.7396 14.98332460 64891,6950.185,96.107,574.479,569.622,0.0
56495.0,STARLINK-5529,PAYLOAD,2024-07-05 18:18:19,14.98347265,0.000348,69.9987,207.262,268.0856,91.9905,0.00016326,1.856e-05,0.0,0 STARLINK-5529,1 56495U 23064AZ  24187.76272656  .00001856  00000-0  16326-3 0  9998,2 56495  69.9987 207.2620 0003480 268.0856  91.9905 14.98347265 64932,6950.14,96.106,574.423,569.586,0.0
56495.0,STARLINK-5529,PAYLOAD,2024-07-06 11:55:49,14.9832952,0.0003315,69.9988,205.4108,267.888,92.1899,-2.9931e-05,-4.5e-06,0.0,0 STARLINK-5529,1 56495U 23064AZ  24188.49709695 -.00000450  00000-0 -29931-4 0  9995,2 56495  69.9988 205.4108 0003315 267.8880  92.1899 14.98329520 65047,6950.194,96.107,574.363,569.755,0.0
56495.0,STARLINK-5529,PAYLOAD,2024-07-06 18:20:21,14.98326987,0.0003305,69.9988,204.7371,269.3355,90.7425,-5.5995e-05,-7.61e-06,0.0,0 STARLINK-5529,1 56495U 23064AZ  24188.76413811 -.00000761  00000-0 -55995-4 0  9991,2 56495  69.9988 204.7371 0003305 269.3355  90.7425 14.98326987 64721,6950.202,96.107,574.364,569.77,0.0
56495.0,STARLINK-5529,PAYLOAD,2024-07-07 10:21:42,14.98324219,0.0003188,69.999,203.054,267.875,92.2044,-6.426e-05,-8.6e-06,0.0,0 STARLINK-5529,1 56495U 23064AZ  24189.43174105 -.00000860  00000-0 -64260-4 0  9991,2 56495  69.9990 203.0540 0003188 267.8750  92.2044 14.98324219 64826,6950.211,96.107,574.291,569.86,0.0
56495.0,STARLINK-5529,PAYLOAD,2024-07-08 10:23:42,14.98333629,0.0003152,69.999,200.5288,270.0215,90.0583,-0.00014321,-1.802e-05,0.0,0 STARLINK-5529,1 56495U 23064AZ  24190.43313566 -.00001802  00000-0 -14321-3 0  9998,2 56495  69.9990 200.5288 0003152 270.0215  90.0583 14.98333629 65336,6950.182,96.107,574.237,569.856,0.0
56495.0,STARLINK-5529,PAYLOAD,2024-07-08 18:24:23,14.98323559,0.0003189,69.9989,199.6873,269.107,90.9724,4.5045e-05,4.44e-06,0.0,0 STARLINK-5529,1 56495U 23064AZ  24190.76693858  .00000444  00000-0  45045-4 0  9996,2 56495  69.9989 199.6873 0003189 269.1070  90.9724 14.98323559 65023,6950.213,96.107,574.294,569.861,0.0
56495.0,STARLINK-5529,PAYLOAD,2024-07-09 10:25:44,14.98325288,0.0003217,69.9989,198.0042,269.2613,90.8177,7.8401e-05,8.42e-06,0.0,0 STARLINK-5529,1 56495U 23064AZ  24191.43453929  .00000842  00000-0  78401-4 0  9998,2 56495  69.9989 198.0042 0003217 269.2613  90.8177 14.98325288 65482,6950.207,96.107,574.308,569.837,0.0
56495.0,STARLINK-5529,PAYLOAD,2024-07-10 10:27:45,14.98328499,0.0003209,69.9989,195.4795,269.2532,90.8259,4.9664e-05,5e-06,0.0,0 STARLINK-5529,1 56495U 23064AZ  24192.43594053  .00000500  00000-0  49664-4 0  9993,2 56495  69.9989 195.4795 0003209 269.2532  90.8259 14.98328499 65634,6950.198,96.107,574.293,569.832,0.0
56495.0,STARLINK-5529,PAYLOAD,2024-07-11 10:29:46,14.98331181,0.0003162,69.999,192.9549,268.9564,91.1233,5.1857e-05,5.26e-06,0.0,0 STARLINK-5529,1 56495U 23064AZ  24193.43733923  .00000526  00000-0  51857-4 0  9990,2 56495  69.9990 192.9549 0003162 268.9564  91.1233 14.98331181 65429,6950.189,96.107,574.252,569.857,0.0
56495.0,STARLINK-5529,PAYLOAD,2024-07-12 08:55:39,14.98331029,0.0003129,69.9991,190.5986,268.5784,91.5017,4.3062e-05,4.21e-06,0.0,0 STARLINK-5529,1 56495U 23064AZ  24194.37197938  .00000421  00000-0  43062-4 0  9997,2 56495  69.9991 190.5986 0003129 268.5784  91.5017 14.98331029 65562,6950.19,96.107,574.229,569.88,0.0
56495.0,STARLINK-5529,PAYLOAD,2024-07-12 16:56:19,14.98331066,0.0003129,69.9991,189.7569,268.8229,91.2571,3.0841e-05,2.75e-06,0.0,0 STARLINK-5529,1 56495U 23064AZ  24194.70577961  .00000275  00000-0  30841-4 0  9990,2 56495  69.9991 189.7569 0003129 268.8229  91.2571 14.98331066 65974,6950.19,96.107,574.229,569.88,0.0
56495.0,STARLINK-5529,PAYLOAD,2024-07-13 10:33:48,14.98331057,0.0003107,69.9992,187.9055,268.2599,91.8204,1.569e-05,9.4e-07,0.0,0 STARLINK-5529,1 56495U 23064AZ  24195.44013959  .00000094  00000-0  15690-4 0  9998,2 56495  69.9992 187.9055 0003107 268.2599  91.8204 14.98331057 65727,6950.19,96.107,574.214,569.895,0.0
56495.0,STARLINK-5529,PAYLOAD,2024-07-13 16:58:20,14.98331587,0.0003146,69.9991,187.2321,268.9946,91.0852,2.0143e-05,1.47e-06,0.0,0 STARLINK-5529,1 56495U 23064AZ  24195.70717893  .00000147  00000-0  20143-4 0  9993,2 56495  69.9991 187.2321 0003146 268.9946  91.0852 14.98331587 66125,6950.188,96.107,574.24,569.866,0.0
56495.0,STARLINK-5529,PAYLOAD,2024-07-14 08:59:40,14.98332629,0.000313,69.9991,185.5489,268.7277,91.3523,4.5733e-05,4.53e-06,0.0,0 STARLINK-5529,1 56495U 23064AZ  24196.37477745  .00000453  00000-0  45733-4 0  9998,2 56495  69.9991 185.5489 0003130 268.7277  91.3523 14.98332629 65865,6950.185,96.107,574.225,569.874,0.0
56495.0,STARLINK-5529,PAYLOAD,2024-07-14 17:00:21,14.98330741,0.0003137,69.9991,184.707,268.8678,91.2122,1.6315e-05,1.02e-06,0.0,0 STARLINK-5529,1 56495U 23064AZ  24196.70857898  .00000102  00000-0  16315-4 0  9991,2 56495  69.9991 184.7070 0003137 268.8678  91.2122 14.98330741 66278,6950.191,96.107,574.236,569.875,0.0
56495.0,STARLINK-5529,PAYLOAD,2024-07-15 09:01:41,14.98332435,0.0003145,69.9991,183.0238,268.7663,91.3135,5.0107e-05,5.05e-06,0.0,0 STARLINK-5529,1 56495U 23064AZ  24197.37617682  .00000505  00000-0  50107-4 0  9994,2 56495  69.9991 183.0238 0003145 268.7663  91.3135 14.98332435 66017,6950.185,96.107,574.236,569.865,0.0
